{
  "type": "FeatureCollection",
  "features": [
    {
      "type": "Feature",
      "properties": {
        "norad_id": 66589,
        "name": "STARLINK-35447",
        "group": "last-30-days",
        "lat": -14.909625218386799,
        "lon": -137.87873889944598,
        "alt_km": 344.981629431265,
        "timestamp": "2025-12-04T23:34:04.491792+00:00",
        "meta_object_name": "STARLINK-35447",
        "meta_object_id": "2025-270B",
        "meta_epoch": "2025-12-04T16:03:09.961056",
        "meta_mean_motion": 15.75079945,
        "meta_eccentricity": 0.0001862,
        "meta_inclination": 42.998,
        "meta_ra_of_asc_node": 240.626,
        "meta_arg_of_pericenter": 262.6758,
        "meta_mean_anomaly": 97.39,
        "meta_ephemeris_type": 0,
        "meta_classification_type": "U",
        "meta_norad_cat_id": 66589,
        "meta_element_set_no": 999,
        "meta_rev_at_epoch": 319,
        "meta_bstar": 0.0019354,
        "meta_mean_motion_dot": 0.00308504,
        "meta_mean_motion_ddot": 0,
        "tle_line1": "1 66589U 25270B   25338.66886529  .00308504  00000+0  19354-2 0  9994",
        "tle_line2": "2 66589  42.9980 240.6260 0001862 262.6758  97.3900 15.75079945  3194"
      },
      "geometry": {
        "type": "Point",
        "coordinates": [
          -137.87873889944598,
          -14.909625218386799
        ]
      }
    },
    {
      "type": "Feature",
      "properties": {
        "norad_id": 66590,
        "name": "STARLINK-35429",
        "group": "last-30-days",
        "lat": -16.164864239246203,
        "lon": -139.39320669775972,
        "alt_km": 344.8962667776241,
        "timestamp": "2025-12-04T23:34:04.491803+00:00",
        "meta_object_name": "STARLINK-35429",
        "meta_object_id": "2025-270C",
        "meta_epoch": "2025-12-04T16:03:38.989728",
        "meta_mean_motion": 15.75057545,
        "meta_eccentricity": 0.0002213,
        "meta_inclination": 42.9988,
        "meta_ra_of_asc_node": 240.6296,
        "meta_arg_of_pericenter": 268.2955,
        "meta_mean_anomaly": 91.7661,
        "meta_ephemeris_type": 0,
        "meta_classification_type": "U",
        "meta_norad_cat_id": 66590,
        "meta_element_set_no": 999,
        "meta_rev_at_epoch": 319,
        "meta_bstar": 0.0020232,
        "meta_mean_motion_dot": 0.00322756,
        "meta_mean_motion_ddot": 0,
        "tle_line1": "1 66590U 25270C   25338.66920127  .00322756  00000+0  20232-2 0  9991",
        "tle_line2": "2 66590  42.9988 240.6296 0002213 268.2955  91.7661 15.75057545  3199"
      },
      "geometry": {
        "type": "Point",
        "coordinates": [
          -139.39320669775972,
          -16.164864239246203
        ]
      }
    },
    {
      "type": "Feature",
      "properties": {
        "norad_id": 66591,
        "name": "STARLINK-36058",
        "group": "last-30-days",
        "lat": -13.69349203497823,
        "lon": -136.43710702377953,
        "alt_km": 344.2698222102881,
        "timestamp": "2025-12-04T23:34:04.491813+00:00",
        "meta_object_name": "STARLINK-36058",
        "meta_object_id": "2025-270D",
        "meta_epoch": "2025-12-04T16:02:41.163072",
        "meta_mean_motion": 15.75043824,
        "meta_eccentricity": 0.0002602,
        "meta_inclination": 42.998,
        "meta_ra_of_asc_node": 240.6243,
        "meta_arg_of_pericenter": 283.7895,
        "meta_mean_anomaly": 76.2684,
        "meta_ephemeris_type": 0,
        "meta_classification_type": "U",
        "meta_norad_cat_id": 66591,
        "meta_element_set_no": 999,
        "meta_rev_at_epoch": 308,
        "meta_bstar": 0.002088,
        "meta_mean_motion_dot": 0.00333331,
        "meta_mean_motion_ddot": 0,
        "tle_line1": "1 66591U 25270D   25338.66853198  .00333331  00000+0  20880-2 0  9995",
        "tle_line2": "2 66591  42.9980 240.6243 0002602 283.7895  76.2684 15.75043824  3087"
      },
      "geometry": {
        "type": "Point",
        "coordinates": [
          -136.43710702377953,
          -13.69349203497823
        ]
      }
    },
    {
      "type": "Feature",
      "properties": {
        "norad_id": 66592,
        "name": "STARLINK-36066",
        "group": "last-30-days",
        "lat": -12.398129767070774,
        "lon": -134.93100958737668,
        "alt_km": 344.6761780366496,
        "timestamp": "2025-12-04T23:34:04.491826+00:00",
        "meta_object_name": "STARLINK-36066",
        "meta_object_id": "2025-270E",
        "meta_epoch": "2025-12-04T16:02:11.616000",
        "meta_mean_motion": 15.75068657,
        "meta_eccentricity": 0.0002573,
        "meta_inclination": 42.9984,
        "meta_ra_of_asc_node": 240.6198,
        "meta_arg_of_pericenter": 265.0868,
        "meta_mean_anomaly": 94.9708,
        "meta_ephemeris_type": 0,
        "meta_classification_type": "U",
        "meta_norad_cat_id": 66592,
        "meta_element_set_no": 999,
        "meta_rev_at_epoch": 298,
        "meta_bstar": 0.001887,
        "meta_mean_motion_dot": 0.00300347,
        "meta_mean_motion_ddot": 0,
        "tle_line1": "1 66592U 25270E   25338.66819000  .00300347  00000+0  18870-2 0  9997",
        "tle_line2": "2 66592  42.9984 240.6198 0002573 265.0868  94.9708 15.75068657  2984"
      },
      "geometry": {
        "type": "Point",
        "coordinates": [
          -134.93100958737668,
          -12.398129767070774
        ]
      }
    },
    {
      "type": "Feature",
      "properties": {
        "norad_id": 66593,
        "name": "STARLINK-36031",
        "group": "last-30-days",
        "lat": -9.884819244377024,
        "lon": -132.07106622414918,
        "alt_km": 340.85353051512357,
        "timestamp": "2025-12-04T23:34:04.491836+00:00",
        "meta_object_name": "STARLINK-36031",
        "meta_object_id": "2025-270F",
        "meta_epoch": "2025-12-04T16:01:12.652320",
        "meta_mean_motion": 15.7491846,
        "meta_eccentricity": 0.0006603,
        "meta_inclination": 42.9978,
        "meta_ra_of_asc_node": 240.6163,
        "meta_arg_of_pericenter": 319.9037,
        "meta_mean_anomaly": 40.1344,
        "meta_ephemeris_type": 0,
        "meta_classification_type": "U",
        "meta_norad_cat_id": 66593,
        "meta_element_set_no": 999,
        "meta_rev_at_epoch": 308,
        "meta_bstar": 0.003472,
        "meta_mean_motion_dot": 0.00567567,
        "meta_mean_motion_ddot": 0,
        "tle_line1": "1 66593U 25270F   25338.66750755  .00567567  00000+0  34720-2 0  9990",
        "tle_line2": "2 66593  42.9978 240.6163 0006603 319.9037  40.1344 15.74918460  3081"
      },
      "geometry": {
        "type": "Point",
        "coordinates": [
          -132.07106622414918,
          -9.884819244377024
        ]
      }
    },
    {
      "type": "Feature",
      "properties": {
        "norad_id": 66594,
        "name": "STARLINK-36032",
        "group": "last-30-days",
        "lat": 4.3538869954335215,
        "lon": -116.65809727341565,
        "alt_km": 338.02416792626445,
        "timestamp": "2025-12-04T23:34:04.491846+00:00",
        "meta_object_name": "STARLINK-36032",
        "meta_object_id": "2025-270G",
        "meta_epoch": "2025-12-04T17:27:41.831136",
        "meta_mean_motion": 15.77063512,
        "meta_eccentricity": 0.0013475,
        "meta_inclination": 42.9972,
        "meta_ra_of_asc_node": 240.2038,
        "meta_arg_of_pericenter": 269.3306,
        "meta_mean_anomaly": 90.602,
        "meta_ephemeris_type": 0,
        "meta_classification_type": "U",
        "meta_norad_cat_id": 66594,
        "meta_element_set_no": 999,
        "meta_rev_at_epoch": 290,
        "meta_bstar": 0.0030656,
        "meta_mean_motion_dot": 0.00551337,
        "meta_mean_motion_ddot": 0,
        "tle_line1": "1 66594U 25270G   25338.72756749  .00551337  00000+0  30656-2 0  9999",
        "tle_line2": "2 66594  42.9972 240.2038 0013475 269.3306  90.6020 15.77063512  2908"
      },
      "geometry": {
        "type": "Point",
        "coordinates": [
          -116.65809727341565,
          4.3538869954335215
        ]
      }
    },
    {
      "type": "Feature",
      "properties": {
        "norad_id": 66595,
        "name": "STARLINK-35711",
        "group": "last-30-days",
        "lat": -8.576034658148714,
        "lon": -130.61182382957378,
        "alt_km": 344.31249992945504,
        "timestamp": "2025-12-04T23:34:04.491856+00:00",
        "meta_object_name": "STARLINK-35711",
        "meta_object_id": "2025-270H",
        "meta_epoch": "2025-12-04T16:00:44.345088",
        "meta_mean_motion": 15.75069212,
        "meta_eccentricity": 0.0002406,
        "meta_inclination": 42.9987,
        "meta_ra_of_asc_node": 240.6131,
        "meta_arg_of_pericenter": 272.2557,
        "meta_mean_anomaly": 87.8037,
        "meta_ephemeris_type": 0,
        "meta_classification_type": "U",
        "meta_norad_cat_id": 66595,
        "meta_element_set_no": 999,
        "meta_rev_at_epoch": 319,
        "meta_bstar": 0.0016803,
        "meta_mean_motion_dot": 0.00266303,
        "meta_mean_motion_ddot": 0,
        "tle_line1": "1 66595U 25270H   25338.66717992  .00266303  00000+0  16803-2 0  9994",
        "tle_line2": "2 66595  42.9987 240.6131 0002406 272.2557  87.8037 15.75069212  3195"
      },
      "geometry": {
        "type": "Point",
        "coordinates": [
          -130.61182382957378,
          -8.576034658148714
        ]
      }
    }
  ]
}